[{"OBJECT_NAME":"SKYSAT-A","OBJECT_ID":"2013-066C","EPOCH":"2026-03-14T09:34:56.260992","MEAN_MOTION":15.12392053,"ECCENTRICITY":0.00199544,"INCLINATION":97.3949,"RA_OF_ASC_NODE":125.7966,"ARG_OF_PERICENTER":282.9967,"MEAN_ANOMALY":76.9036,"EPHEMERIS_TYPE":0,"CLASSIFICATION_TYPE":"U","NORAD_CAT_ID":39418,"ELEMENT_SET_NO":999,"REV_AT_EPOCH":67415,"BSTAR":0.00021167415,"MEAN_MOTION_DOT":3.627e-5,"MEAN_MOTION_DDOT":0},{"OBJECT_NAME":"SKYSAT-B","OBJECT_ID":"2014-037D","EPOCH":"2026-03-14T08:53:11.254560","MEAN_MOTION":14.87747053,"ECCENTRICITY":0.00046113,"INCLINATION":98.3729,"RA_OF_ASC_NODE":27.0082,"ARG_OF_PERICENTER":214.9053,"MEAN_ANOMALY":145.186,"EPHEMERIS_TYPE":0,"CLASSIFICATION_TYPE":"U","NORAD_CAT_ID":40072,"ELEMENT_SET_NO":999,"REV_AT_EPOCH":63186,"BSTAR":0.00020337446,"MEAN_MOTION_DOT":1.794e-5,"MEAN_MOTION_DDOT":0},{"OBJECT_NAME":"SKYSAT-C1","OBJECT_ID":"2016-040C","EPOCH":"2026-03-14T12:37:45.846912","MEAN_MOTION":15.34623748,"ECCENTRICITY":0.00031547,"INCLINATION":96.9698,"RA_OF_ASC_NODE":110.4281,"ARG_OF_PERICENTER":43.4148,"MEAN_ANOMALY":316.7344,"EPHEMERIS_TYPE":0,"CLASSIFICATION_TYPE":"U","NORAD_CAT_ID":41601,"ELEMENT_SET_NO":999,"REV_AT_EPOCH":54334,"BSTAR":0.00040321275,"MEAN_MOTION_DOT":0.00013465,"MEAN_MOTION_DDOT":0},{"OBJECT_NAME":"SKYSAT-C4","OBJECT_ID":"2016-058B","EPOCH":"2026-03-14T13:49:49.304640","MEAN_MOTION":15.45566489,"ECCENTRICITY":0.0001269,"INCLINATION":96.9288,"RA_OF_ASC_NODE":99.4611,"ARG_OF_PERICENTER":131.7607,"MEAN_ANOMALY":228.3752,"EPHEMERIS_TYPE":0,"CLASSIFICATION_TYPE":"U","NORAD_CAT_ID":41771,"ELEMENT_SET_NO":999,"REV_AT_EPOCH":53084,"BSTAR":0.00046836754,"MEAN_MOTION_DOT":0.00022462,"MEAN_MOTION_DDOT":0},{"OBJECT_NAME":"SKYSAT-C5","OBJECT_ID":"2016-058C","EPOCH":"2026-03-14T14:04:56.771616","MEAN_MOTION":15.34105983,"ECCENTRICITY":3.716e-5,"INCLINATION":97.0612,"RA_OF_ASC_NODE":118.4402,"ARG_OF_PERICENTER":96.6128,"MEAN_ANOMALY":263.5158,"EPHEMERIS_TYPE":0,"CLASSIFICATION_TYPE":"U","NORAD_CAT_ID":41772,"ELEMENT_SET_NO":999,"REV_AT_EPOCH":52924,"BSTAR":0.00035255195,"MEAN_MOTION_DOT":0.00011567,"MEAN_MOTION_DDOT":0},{"OBJECT_NAME":"SKYSAT-C2","OBJECT_ID":"2016-058D","EPOCH":"2026-03-14T13:58:34.548384","MEAN_MOTION":15.39848661,"ECCENTRICITY":0.00046724,"INCLINATION":97.0277,"RA_OF_ASC_NODE":99.3386,"ARG_OF_PERICENTER":57.6603,"MEAN_ANOMALY":302.5096,"EPHEMERIS_TYPE":0,"CLASSIFICATION_TYPE":"U","NORAD_CAT_ID":41773,"ELEMENT_SET_NO":999,"REV_AT_EPOCH":53048,"BSTAR":0.00043269437,"MEAN_MOTION_DOT":0.00017122,"MEAN_MOTION_DDOT":0},{"OBJECT_NAME":"SKYSAT-C3","OBJECT_ID":"2016-058E","EPOCH":"2026-03-14T14:22:13.977696","MEAN_MOTION":15.48568039,"ECCENTRICITY":0.00017528,"INCLINATION":96.9177,"RA_OF_ASC_NODE":108.2625,"ARG_OF_PERICENTER":113.2146,"MEAN_ANOMALY":246.929,"EPHEMERIS_TYPE":0,"CLASSIFICATION_TYPE":"U","NORAD_CAT_ID":41774,"ELEMENT_SET_NO":999,"REV_AT_EPOCH":53145,"BSTAR":0.00053780961,"MEAN_MOTION_DOT":0.00028643,"MEAN_MOTION_DDOT":0},{"OBJECT_NAME":"SKYSAT-C11","OBJECT_ID":"2017-068A","EPOCH":"2026-03-14T11:40:00.634944","MEAN_MOTION":15.52752003,"ECCENTRICITY":4.415e-5,"INCLINATION":97.4205,"RA_OF_ASC_NODE":218.6309,"ARG_OF_PERICENTER":79.5811,"MEAN_ANOMALY":280.5492,"EPHEMERIS_TYPE":0,"CLASSIFICATION_TYPE":"U","NORAD_CAT_ID":42987,"ELEMENT_SET_NO":999,"REV_AT_EPOCH":46852,"BSTAR":0.00067614727,"MEAN_MOTION_DOT":0.00041844,"MEAN_MOTION_DDOT":0},{"OBJECT_NAME":"SKYSAT-C10","OBJECT_ID":"2017-068B","EPOCH":"2026-03-14T07:14:30.800832","MEAN_MOTION":15.32803097,"ECCENTRICITY":0.00010091,"INCLINATION":97.4338,"RA_OF_ASC_NODE":209.4353,"ARG_OF_PERICENTER":94.4308,"MEAN_ANOMALY":265.705,"EPHEMERIS_TYPE":0,"CLASSIFICATION_TYPE":"U","NORAD_CAT_ID":42988,"ELEMENT_SET_NO":999,"REV_AT_EPOCH":46781,"BSTAR":0.00042814442,"MEAN_MOTION_DOT":0.00013494,"MEAN_MOTION_DDOT":0},{"OBJECT_NAME":"SKYSAT-C9","OBJECT_ID":"2017-068C","EPOCH":"2026-03-14T07:54:32.293152","MEAN_MOTION":15.39055145,"ECCENTRICITY":0.00098983,"INCLINATION":97.4263,"RA_OF_ASC_NODE":209.5395,"ARG_OF_PERICENTER":117.3388,"MEAN_ANOMALY":242.8866,"EPHEMERIS_TYPE":0,"CLASSIFICATION_TYPE":"U","NORAD_CAT_ID":42989,"ELEMENT_SET_NO":999,"REV_AT_EPOCH":46815,"BSTAR":0.00048014201,"MEAN_MOTION_DOT":0.00018542,"MEAN_MOTION_DDOT":0},{"OBJECT_NAME":"SKYSAT-C8","OBJECT_ID":"2017-068D","EPOCH":"2026-03-14T08:16:51.900960","MEAN_MOTION":15.34907311,"ECCENTRICITY":0.00012446,"INCLINATION":97.4353,"RA_OF_ASC_NODE":208.9335,"ARG_OF_PERICENTER":95.4723,"MEAN_ANOMALY":264.6662,"EPHEMERIS_TYPE":0,"CLASSIFICATION_TYPE":"U","NORAD_CAT_ID":42990,"ELEMENT_SET_NO":999,"REV_AT_EPOCH":46775,"BSTAR":0.000431897,"MEAN_MOTION_DOT":0.00014552,"MEAN_MOTION_DDOT":0},{"OBJECT_NAME":"SKYSAT-C7","OBJECT_ID":"2017-068E","EPOCH":"2026-03-14T08:02:48.197184","MEAN_MOTION":15.3485906,"ECCENTRICITY":0.00072868,"INCLINATION":97.4368,"RA_OF_ASC_NODE":209.9068,"ARG_OF_PERICENTER":89.728,"MEAN_ANOMALY":270.4798,"EPHEMERIS_TYPE":0,"CLASSIFICATION_TYPE":"U","NORAD_CAT_ID":42991,"ELEMENT_SET_NO":999,"REV_AT_EPOCH":46781,"BSTAR":0.00045328338,"MEAN_MOTION_DOT":0.00015266,"MEAN_MOTION_DDOT":0},{"OBJECT_NAME":"SKYSAT-C6","OBJECT_ID":"2017-068F","EPOCH":"2026-03-14T08:07:14.522592","MEAN_MOTION":15.32621955,"ECCENTRICITY":0.00037466,"INCLINATION":97.44,"RA_OF_ASC_NODE":210.1814,"ARG_OF_PERICENTER":116.9689,"MEAN_ANOMALY":243.1936,"EPHEMERIS_TYPE":0,"CLASSIFICATION_TYPE":"U","NORAD_CAT_ID":42992,"ELEMENT_SET_NO":999,"REV_AT_EPOCH":46778,"BSTAR":0.00043529856,"MEAN_MOTION_DOT":0.00013646,"MEAN_MOTION_DDOT":0},{"OBJECT_NAME":"SKYSAT-C12","OBJECT_ID":"2018-099AR","EPOCH":"2026-03-14T14:44:06.646848","MEAN_MOTION":15.4580124,"ECCENTRICITY":0.00059435,"INCLINATION":96.9378,"RA_OF_ASC_NODE":100.8116,"ARG_OF_PERICENTER":126.01,"MEAN_ANOMALY":234.1703,"EPHEMERIS_TYPE":0,"CLASSIFICATION_TYPE":"U","NORAD_CAT_ID":43797,"ELEMENT_SET_NO":999,"REV_AT_EPOCH":40723,"BSTAR":0.00049394188,"MEAN_MOTION_DOT":0.00023902,"MEAN_MOTION_DDOT":0},{"OBJECT_NAME":"SKYSAT-C13","OBJECT_ID":"2018-099AW","EPOCH":"2026-03-14T14:43:57.671616","MEAN_MOTION":15.77703043,"ECCENTRICITY":0.00045743,"INCLINATION":96.94,"RA_OF_ASC_NODE":121.2632,"ARG_OF_PERICENTER":183.6526,"MEAN_ANOMALY":176.4709,"EPHEMERIS_TYPE":0,"CLASSIFICATION_TYPE":"U","NORAD_CAT_ID":43802,"ELEMENT_SET_NO":999,"REV_AT_EPOCH":40794,"BSTAR":0.000707369,"MEAN_MOTION_DOT":0.00119345,"MEAN_MOTION_DDOT":0},{"OBJECT_NAME":"FLOCK 4Q-16","OBJECT_ID":"2023-174R","EPOCH":"2026-03-14T11:36:45.965376","MEAN_MOTION":15.45046298,"ECCENTRICITY":0.00081176,"INCLINATION":97.3855,"RA_OF_ASC_NODE":159.6936,"ARG_OF_PERICENTER":144.0284,"MEAN_ANOMALY":216.1512,"EPHEMERIS_TYPE":0,"CLASSIFICATION_TYPE":"U","NORAD_CAT_ID":58271,"ELEMENT_SET_NO":999,"REV_AT_EPOCH":13093,"BSTAR":0.00060815042,"MEAN_MOTION_DOT":0.00028727,"MEAN_MOTION_DDOT":0}]
